PERSEUS-M1              
1 40039U 14033AF  26181.41649891  .00001344  00000+0  12620-3 0  9992
2 40039  97.9649 125.7659 0009966 251.6407 108.3730 14.95675975652612
POLYITAN-1              
1 40042U 14033AJ  26180.58098528  .00017344  00000+0  53396-3 0  9990
2 40042  98.0936 208.0175 0008806 107.4053 252.8151 15.33688122655494
TIGRISAT                
1 40043U 14033AK  26181.38830701  .00001801  00000+0  21188-3 0  9992
2 40043  97.7846 331.0986 0049875  32.8069 327.6225 14.85208216647589
AEROCUBE 6A             
1 40045U 14033AM  26181.44829789  .00004440  00000+0  37355-3 0  9990
2 40045  97.7225 348.2575 0037934 331.7589  28.1576 14.98217034648605
AEROCUBE 6B             
1 40046U 14033AN  26181.43770937  .00004015  00000+0  32579-3 0  9991
2 40046  97.7220 348.0666 0037694 322.6349  37.2254 14.99680047648744
CANX-4                  
1 40055U 14034C   26181.18905135  .00000911  00000+0  12406-3 0  9992
2 40055  98.3105  56.9785 0012182 335.2162  24.8462 14.81287257646454
CANX-5                  
1 40056U 14034D   26181.59262501  .00000914  00000+0  12435-3 0  9996
2 40056  98.3106  57.4412 0012155 334.0615  25.9985 14.81305404637322
UKUBE-1                 
1 40074U 14037F   26180.99293969  .00007967  00000+0  44607-3 0  9995
2 40074  98.4232 185.6118 0003226 111.9544 248.2028 15.13745679650491
BRITE-PL2 (HEWELIUSZ)   
1 40119U 14049B   26181.29417840  .00001504  00000+0  14407-3 0  9994
2 40119  97.9110 293.3961 0015182  68.3877 291.8959 14.94640537643406
AEROCUBE 5C             
1 40965U 15058B   26181.44707040  .00002025  00000+0  18614-3 0  9998
2 40965  64.7655 221.3382 0131416  58.0990 303.2827 14.91505798367636
AEROCUBE 7              
1 40966U 15058C   26181.47230673  .00003385  00000+0  27496-3 0  9993
2 40966  64.7600 203.2013 0121140  56.4509 304.8105 14.95802217367948
FOX-1A (AO-85)          
1 40967U 15058D   26181.56603293  .00002007  00000+0  18701-3 0  9995
2 40967  64.7741 237.4052 0131292  51.3883 309.8898 14.91023562115562
SINOD-D 1               
1 40968U 15058E   26181.51551323  .00003198  00000+0  26012-3 0  9993
2 40968  64.7731 217.1713 0119954  47.8242 313.2983 14.95981461118653
SNAP-3 ALICE            
1 40970U 15058G   26180.98186906  .00133505  00000+0  14014-2 0  9991
2 40970  64.7502  59.6048 0024102   2.4470 357.6790 15.63339354118889
LMRST-SAT               
1 40971U 15058H   26181.52476366  .00001923  00000+0  18094-3 0  9996
2 40971  64.7747 233.8969 0132886  53.4236 307.9018 14.90640261115546
SNAP-3 EDDIE            
1 40972U 15058J   26181.60100853  .00141841  00000+0  14082-2 0  9997
2 40972  64.7412  48.0788 0024773   5.0851 355.0544 15.64697747121124
PROPCUBE 3              
1 40973U 15058K   26181.52755621  .00002853  00000+0  24135-3 0  9998
2 40973  64.7666 210.8535 0124830  54.6546 306.6159 14.94323629116799
BISONSAT                
1 40974U 15058L   26181.22366748  .00014471  00000+0  68824-3 0  9996
2 40974  64.7579 131.4853 0080552  41.9984 318.7278 15.16529064117592
SNAP-3 JIMI             
1 40975U 15058M   26181.36934748  .00006333  00000+0  43287-3 0  9997
2 40975  64.7627 178.0607 0106913  50.0840 310.9614 15.02426842116203
PROPCUBE 1 (FLORA)      
1 40976U 15058N   26181.49193244  .00001792  00000+0  17639-3 0  9996
2 40976  64.7744 254.0001 0131497  55.7391 305.6091 14.89273800118249
SINOD-D 3               
1 40977U 15058P   26181.49443094  .00002720  00000+0  23487-3 0  9998
2 40977  64.7711 234.2631 0120034  52.8555 308.3450 14.94086768116741
HORYU-4                 
1 41340U 16012D   26180.82153158  .01724866  25695-2  11623-2 0  9990
2 41340  30.9811 345.1963 0009916 343.8353  16.1997 16.16169270572849
RAVAN                   
1 41849U 16067B   26181.23315866  .00050253  00000+0  72177-3 0  9999
2 41849  97.9874  72.3235 0002161 338.8444  21.2719 15.55958788529726
CELTEE 1                
1 41850U 16067C   26181.57303351  .00005447  00000+0  25791-3 0  9999
2 41850  98.0655  49.0530 0001675 127.0144 233.1243 15.19809479527917
OPTICUBE 04             
1 41851U 16067D   26181.40151784  .00002642  00000+0  16781-3 0  9996
2 41851  98.0685  34.3741 0016950  74.6960 285.6139 15.09715624527167
AEROCUBE 8D             
1 41852U 16067E   26180.88928313  .00007287  00000+0  29897-3 0  9990
2 41852  98.0666  52.0272 0005037  93.4048 266.7764 15.24570829528004
AEROCUBE 8C             
1 41853U 16067F   26181.17467180  .00007002  00000+0  28522-3 0  9993
2 41853  98.0539  49.5454 0005749  32.4331 327.7257 15.24825427528041
CORVUS BC2              
1 42846U 17042X   26181.41407017  .00002906  00000+0  20105-3 0  9997
2 42846  97.4068 342.2504 0014301  69.6054 290.6709 15.06373686489053
CORVUS BC1              
1 42847U 17042Y   26181.40722406  .00003558  00000+0  24421-3 0  9998
2 42847  97.4101 343.0664 0012726  48.0535 312.1776 15.06538934489088
MAKERSAT 0              
1 43016U 17073D   26180.65307766  .00015252  00000+0  41021-3 0  9994
2 43016  97.4608  63.2716 0104836 227.8569 131.3731 15.32493741468372
